,zip_code,distance,city,state
77,80202,0.0,"""Denver""","""CO"""
76,80294,0.45899999999999996,"""Denver""","""CO"""
74,80293,0.557,"""Denver""","""CO"""
72,80290,0.7929999999999999,"""Denver""","""CO"""
70,80264,0.914,"""Denver""","""CO"""
107,80211,1.6,"""Denver""","""CO"""
65,80203,1.6059999999999999,"""Denver""","""CO"""
67,80204,1.695,"""Denver""","""CO"""
78,80205,1.8880000000000001,"""Denver""","""CO"""
64,80218,2.031,"""Denver""","""CO"""
63,80206,2.807,"""Denver""","""CO"""
110,80212,3.017,"""Denver""","""CO"""
114,80216,3.327,"""Denver""","""CO"""
57,80209,3.551,"""Denver""","""CO"""
71,80214,3.8510000000000004,"""Denver""","""CO"""
52,80223,3.8939999999999997,"""Denver""","""CO"""
106,80207,4.351,"""Denver""","""CO"""
51,80219,4.4110000000000005,"""Denver""","""CO"""
66,80220,4.471,"""Denver""","""CO"""
116,80221,4.56,"""Denver""","""CO"""
56,80246,4.7860000000000005,"""Denver""","""CO"""
108,80034,5.085,"""Wheat Ridge""","""CO"""
40,80210,5.523,"""Denver""","""CO"""
58,80226,5.676,"""Denver""","""CO"""
121,80030,5.852,"""Westminster""","""CO"""
111,80033,5.867999999999999,"""Wheat Ridge""","""CO"""
60,80230,6.119,"""Denver""","""CO"""
120,80003,6.164,"""Arvada""","""CO"""
109,80238,6.266,"""Denver""","""CO"""
73,80215,6.32,"""Denver""","""CO"""
42,80224,6.3660000000000005,"""Denver""","""CO"""
115,80002,6.443,"""Arvada""","""CO"""
41,80232,6.675,"""Denver""","""CO"""
38,80222,6.695,"""Denver""","""CO"""
98,80273,6.779,"""Denver""","""CO"""
80,80208,6.779,"""Denver""","""CO"""
85,80248,6.779,"""Denver""","""CO"""
84,80244,6.779,"""Denver""","""CO"""
99,80274,6.779,"""Denver""","""CO"""
100,80279,6.779,"""Denver""","""CO"""
101,80280,6.779,"""Denver""","""CO"""
83,80243,6.779,"""Denver""","""CO"""
102,80281,6.779,"""Denver""","""CO"""
82,80225,6.779,"""Denver""","""CO"""
81,80217,6.779,"""Denver""","""CO"""
103,80291,6.779,"""Denver""","""CO"""
86,80250,6.779,"""Denver""","""CO"""
87,80251,6.779,"""Denver""","""CO"""
88,80252,6.779,"""Denver""","""CO"""
89,80256,6.779,"""Denver""","""CO"""
90,80257,6.779,"""Denver""","""CO"""
91,80259,6.779,"""Denver""","""CO"""
92,80261,6.779,"""Denver""","""CO"""
93,80262,6.779,"""Denver""","""CO"""
79,80201,6.779,"""Denver""","""CO"""
94,80263,6.779,"""Denver""","""CO"""
95,80265,6.779,"""Denver""","""CO"""
96,80266,6.779,"""Denver""","""CO"""
97,80271,6.779,"""Denver""","""CO"""
104,80295,6.779,"""Denver""","""CO"""
105,80299,6.779,"""Denver""","""CO"""
118,80001,7.195,"""Arvada""","""CO"""
119,80006,7.195,"""Arvada""","""CO"""
69,80010,7.207000000000001,"""Aurora""","""CO"""
33,80236,7.285,"""Denver""","""CO"""
54,80247,7.309,"""Denver""","""CO"""
30,80110,7.36,"""Englewood""","""CO"""
126,80229,7.456,"""Denver""","""CO"""
29,80113,7.62,"""Englewood""","""CO"""
123,80024,7.632000000000001,"""Dupont""","""CO"""
37,80227,7.685,"""Denver""","""CO"""
26,80150,7.742000000000001,"""Englewood""","""CO"""
27,80151,7.742000000000001,"""Englewood""","""CO"""
28,80155,7.742000000000001,"""Englewood""","""CO"""
129,80260,7.957999999999999,"""Denver""","""CO"""
39,80231,8.048,"""Denver""","""CO"""
117,80004,8.095,"""Arvada""","""CO"""
75,80045,8.466000000000001,"""Aurora""","""CO"""
130,80031,8.704,"""Westminster""","""CO"""
31,80235,8.719,"""Denver""","""CO"""
113,80239,8.782,"""Denver""","""CO"""
55,80012,9.229,"""Aurora""","""CO"""
25,80237,9.265,"""Denver""","""CO"""
133,80036,9.279,"""Westminster""","""CO"""
132,80035,9.279,"""Westminster""","""CO"""
124,80005,9.907,"""Arvada""","""CO"""
20,80121,10.088,"""Littleton""","""CO"""
50,80228,10.142000000000001,"""Denver""","""CO"""
22,80123,10.144,"""Littleton""","""CO"""
36,80014,10.437999999999999,"""Aurora""","""CO"""
127,80037,10.440999999999999,"""Commerce City""","""CO"""
136,80233,10.562000000000001,"""Denver""","""CO"""
45,80041,10.838,"""Aurora""","""CO"""
46,80042,10.838,"""Aurora""","""CO"""
48,80046,10.838,"""Aurora""","""CO"""
49,80047,10.838,"""Aurora""","""CO"""
44,80040,10.838,"""Aurora""","""CO"""
47,80044,10.838,"""Aurora""","""CO"""
137,80234,10.925999999999998,"""Denver""","""CO"""
17,80120,10.949000000000002,"""Littleton""","""CO"""
61,80419,11.049000000000001,"""Golden""","""CO"""
11,80160,11.207,"""Littleton""","""CO"""
12,80161,11.207,"""Littleton""","""CO"""
13,80162,11.207,"""Littleton""","""CO"""
15,80165,11.207,"""Littleton""","""CO"""
16,80166,11.207,"""Littleton""","""CO"""
14,80163,11.207,"""Littleton""","""CO"""
134,80640,11.214,"""Henderson""","""CO"""
62,80402,11.395,"""Golden""","""CO"""
135,80021,11.4,"""Broomfield""","""CO"""
68,80011,11.481,"""Aurora""","""CO"""
21,80111,11.503,"""Englewood""","""CO"""
138,80614,11.777999999999999,"""Eastlake""","""CO"""
53,80017,11.867,"""Aurora""","""CO"""
10,80122,12.069,"""Littleton""","""CO"""
139,80241,12.477,"""Thornton""","""CO"""
128,80007,12.856,"""Arvada""","""CO"""
59,80401,12.9,"""Golden""","""CO"""
140,80020,13.013,"""Broomfield""","""CO"""
142,80038,13.408,"""Broomfield""","""CO"""
8,80128,13.708,"""Littleton""","""CO"""
131,80022,13.755,"""Commerce City""","""CO"""
34,80013,13.802999999999999,"""Aurora""","""CO"""
9,80112,14.194,"""Englewood""","""CO"""
7,80129,14.277000000000001,"""Littleton""","""CO"""
35,80453,14.42,"""Idledale""","""CO"""
23,80015,14.452,"""Aurora""","""CO"""
6,80126,14.75,"""Littleton""","""CO"""
19,80465,14.823,"""Morrison""","""CO"""
148,80023,15.484000000000002,"""Broomfield""","""CO"""
146,80602,15.548,"""Brighton""","""CO"""
143,80028,15.638,"""Louisville""","""CO"""
4,80130,15.767000000000001,"""Littleton""","""CO"""
24,80454,15.775,"""Indian Hills""","""CO"""
112,80019,15.857000000000001,"""Aurora""","""CO"""
5,80124,16.162,"""Lone Tree""","""CO"""
144,80027,16.211,"""Louisville""","""CO"""
43,80018,16.938,"""Aurora""","""CO"""
122,80403,17.072,"""Golden""","""CO"""
32,80457,17.16,"""Kittredge""","""CO"""
125,80249,17.504,"""Denver""","""CO"""
145,80601,17.660999999999998,"""Brighton""","""CO"""
3,80127,17.672,"""Littleton""","""CO"""
2,80125,18.671,"""Littleton""","""CO"""
18,80016,18.673,"""Aurora""","""CO"""
149,80026,18.792,"""Lafayette""","""CO"""
147,80303,18.977999999999998,"""Boulder""","""CO"""
1,80131,19.042,"""Louviers""","""CO"""
141,80025,19.989,"""Eldorado Springs""","""CO"""
150,,,,
